ICEYE-X40               
1 60549U 24149CK  26192.75053318  .00001261  00000+0  11153-3 0  9999
2 60549  97.6797 268.8525 0003835  17.7554 342.3802 14.98053462103755
ICEYE-X49               
1 62384U 24247H   26192.46046333  .00001655  00000+0  10471-3 0  9993
2 62384  44.9968 227.7434 0001319 238.3174 121.7575 15.13601970 85853
ICEYE-X47               
1 62389U 24247N   26192.43613987  .00001575  00000+0  10071-3 0  9997
2 62389  44.9950 227.4651 0001774 328.9682  31.1091 15.13475729 85850
ICEYE-X42               
1 62698U 25009CT  26192.75550317  .00001173  00000+0  12165-3 0  9999
2 62698  97.7377 270.6291 0001492  80.0196 280.1191 14.91846180 80956
ICEYE-X41               
1 62700U 25009CV  26192.80447153  .00001394  00000+0  12647-3 0  9992
2 62700  97.7063 271.9737 0000546 335.2649  24.8546 14.96901994 81091
ICEYE-X45               
1 62705U 25009DA  26192.79770904  .00003973  00000+0  31730-3 0  9997
2 62705  97.8405 279.6853 0001221  78.5926 281.5435 15.00851213 81371
ICEYE-X44               
1 62707U 25009DC  26192.76507091  .00002183  00000+0  19893-3 0  9999
2 62707  97.7055 271.5026 0002641  79.6019 280.5500 14.96153599103618
ICEYE-X48               
1 63253U 25052AV  26192.70382592  .00001645  00000+0  14386-3 0  9999
2 63253  97.6840  84.5150 0003595 112.6586 247.5017 14.98113064 72348
ICEYE-X50               
1 63255U 25052AX  26192.98400860  .00001330  00000+0  12566-3 0  9999
2 63255  97.6863  84.4003 0003396 108.7210 251.4380 14.95358457 72352
ICEYE-X51               
1 63257U 25052AZ  26192.59202994  .00002631  00000+0  21149-3 0  9998
2 63257  97.7607  87.6429 0002073  68.4125 291.7319 15.00893440 72460
ICEYE-X46               
1 63258U 25052BA  26192.64616091  .00001482  00000+0  13948-3 0  9993
2 63258  97.6864  84.0678 0001691  85.0528 275.0886 14.95358228 72309
ICEYE-X54               
1 64570U 25135AU  26192.92899238  .00001976  00000+0  18733-3 0  9995
2 64570  97.7743 307.1151 0001824 192.3506 167.7670 14.94720698 57590
ICEYE-X52               
1 64572U 25135AW  26192.92449602  .00001253  00000+0  12400-3 0  9996
2 64572  97.7766 306.9045 0000986 200.9078 159.2102 14.93644889 57574
ICEYE-X56               
1 64574U 25135AY  26192.91866422  .00001835  00000+0  16991-3 0  9995
2 64574  97.7762 307.6868 0001132 210.1508 149.9648 14.95749044 57626
ICEYE-X57               
1 64578U 25135BC  26192.93447495  .00002775  00000+0  22300-3 0  9991
2 64578  97.8012 309.4771 0002132  59.6776 300.4659 15.00867651 57736
ICEYE-X55               
1 64581U 25135BF  26192.92525052  .00002085  00000+0  19428-3 0  9991
2 64581  97.7762 307.5210 0001816 252.6603 107.4419 14.95349244 57612
