{"fetched_at":"2026-07-12T07:15:43.345Z","source":"https://celestrak.org/NORAD/elements/gp.php?NAME=ICEYE&FORMAT=JSON","constellation":"iceye","records":[{"OBJECT_NAME":"ICEYE-X40","OBJECT_ID":"2024-149CK","EPOCH":"2026-07-11T18:00:46.066752","CLASSIFICATION_TYPE":"U","MEAN_MOTION":14.98053462,"ECCENTRICITY":0.00038359,"INCLINATION":97.6797,"RA_OF_ASC_NODE":268.8525,"ARG_OF_PERICENTER":17.7554,"MEAN_ANOMALY":342.3802,"EPHEMERIS_TYPE":0,"NORAD_CAT_ID":60549,"ELEMENT_SET_NO":999,"REV_AT_EPOCH":10375,"BSTAR":0.0001115321,"MEAN_MOTION_DOT":0.00001261,"MEAN_MOTION_DDOT":0},{"OBJECT_NAME":"ICEYE-X49","OBJECT_ID":"2024-247H","EPOCH":"2026-07-11T11:03:04.031712","CLASSIFICATION_TYPE":"U","MEAN_MOTION":15.1360197,"ECCENTRICITY":0.00013194,"INCLINATION":44.9968,"RA_OF_ASC_NODE":227.7434,"ARG_OF_PERICENTER":238.3174,"MEAN_ANOMALY":121.7575,"EPHEMERIS_TYPE":0,"NORAD_CAT_ID":62384,"ELEMENT_SET_NO":999,"REV_AT_EPOCH":8585,"BSTAR":0.00010470817,"MEAN_MOTION_DOT":0.00001655,"MEAN_MOTION_DDOT":0},{"OBJECT_NAME":"ICEYE-X47","OBJECT_ID":"2024-247N","EPOCH":"2026-07-11T10:28:02.484768","CLASSIFICATION_TYPE":"U","MEAN_MOTION":15.13475729,"ECCENTRICITY":0.00017746,"INCLINATION":44.995,"RA_OF_ASC_NODE":227.4651,"ARG_OF_PERICENTER":328.9682,"MEAN_ANOMALY":31.1091,"EPHEMERIS_TYPE":0,"NORAD_CAT_ID":62389,"ELEMENT_SET_NO":999,"REV_AT_EPOCH":8585,"BSTAR":0.00010070501,"MEAN_MOTION_DOT":0.00001575,"MEAN_MOTION_DDOT":0},{"OBJECT_NAME":"ICEYE-X42","OBJECT_ID":"2025-009CT","EPOCH":"2026-07-11T18:07:55.473888","CLASSIFICATION_TYPE":"U","MEAN_MOTION":14.9184618,"ECCENTRICITY":0.00014921,"INCLINATION":97.7377,"RA_OF_ASC_NODE":270.6291,"ARG_OF_PERICENTER":80.0196,"MEAN_ANOMALY":280.1191,"EPHEMERIS_TYPE":0,"NORAD_CAT_ID":62698,"ELEMENT_SET_NO":999,"REV_AT_EPOCH":8095,"BSTAR":0.00012164972,"MEAN_MOTION_DOT":0.00001173,"MEAN_MOTION_DDOT":0},{"OBJECT_NAME":"ICEYE-X41","OBJECT_ID":"2025-009CV","EPOCH":"2026-07-11T19:18:26.340192","CLASSIFICATION_TYPE":"U","MEAN_MOTION":14.96901994,"ECCENTRICITY":0.00005468,"INCLINATION":97.7063,"RA_OF_ASC_NODE":271.9737,"ARG_OF_PERICENTER":335.2649,"MEAN_ANOMALY":24.8546,"EPHEMERIS_TYPE":0,"NORAD_CAT_ID":62700,"ELEMENT_SET_NO":999,"REV_AT_EPOCH":8109,"BSTAR":0.00012646681,"MEAN_MOTION_DOT":0.00001394,"MEAN_MOTION_DDOT":0},{"OBJECT_NAME":"ICEYE-X45","OBJECT_ID":"2025-009DA","EPOCH":"2026-07-11T19:08:42.061056","CLASSIFICATION_TYPE":"U","MEAN_MOTION":15.00851213,"ECCENTRICITY":0.00012215,"INCLINATION":97.8405,"RA_OF_ASC_NODE":279.6853,"ARG_OF_PERICENTER":78.5926,"MEAN_ANOMALY":281.5435,"EPHEMERIS_TYPE":0,"NORAD_CAT_ID":62705,"ELEMENT_SET_NO":999,"REV_AT_EPOCH":8137,"BSTAR":0.00031730396,"MEAN_MOTION_DOT":0.00003973,"MEAN_MOTION_DDOT":0},{"OBJECT_NAME":"ICEYE-X44","OBJECT_ID":"2025-009DC","EPOCH":"2026-07-11T18:21:42.126624","CLASSIFICATION_TYPE":"U","MEAN_MOTION":14.96153599,"ECCENTRICITY":0.00026413,"INCLINATION":97.7055,"RA_OF_ASC_NODE":271.5026,"ARG_OF_PERICENTER":79.6019,"MEAN_ANOMALY":280.55,"EPHEMERIS_TYPE":0,"NORAD_CAT_ID":62707,"ELEMENT_SET_NO":999,"REV_AT_EPOCH":10361,"BSTAR":0.00019892613,"MEAN_MOTION_DOT":0.00002183,"MEAN_MOTION_DDOT":0},{"OBJECT_NAME":"ICEYE-X48","OBJECT_ID":"2025-052AV","EPOCH":"2026-07-11T16:53:30.559488","CLASSIFICATION_TYPE":"U","MEAN_MOTION":14.98113064,"ECCENTRICITY":0.0003595,"INCLINATION":97.684,"RA_OF_ASC_NODE":84.515,"ARG_OF_PERICENTER":112.6586,"MEAN_ANOMALY":247.5017,"EPHEMERIS_TYPE":0,"NORAD_CAT_ID":63253,"ELEMENT_SET_NO":999,"REV_AT_EPOCH":7234,"BSTAR":0.00014386281,"MEAN_MOTION_DOT":0.00001645,"MEAN_MOTION_DDOT":0},{"OBJECT_NAME":"ICEYE-X50","OBJECT_ID":"2025-052AX","EPOCH":"2026-07-11T23:36:58.343040","CLASSIFICATION_TYPE":"U","MEAN_MOTION":14.95358457,"ECCENTRICITY":0.00033967,"INCLINATION":97.6863,"RA_OF_ASC_NODE":84.4003,"ARG_OF_PERICENTER":108.721,"MEAN_ANOMALY":251.438,"EPHEMERIS_TYPE":0,"NORAD_CAT_ID":63255,"ELEMENT_SET_NO":999,"REV_AT_EPOCH":7235,"BSTAR":0.00012565691,"MEAN_MOTION_DOT":0.0000133,"MEAN_MOTION_DDOT":0},{"OBJECT_NAME":"ICEYE-X51","OBJECT_ID":"2025-052AZ","EPOCH":"2026-07-11T14:12:31.386816","CLASSIFICATION_TYPE":"U","MEAN_MOTION":15.0089344,"ECCENTRICITY":0.00020733,"INCLINATION":97.7607,"RA_OF_ASC_NODE":87.6429,"ARG_OF_PERICENTER":68.4125,"MEAN_ANOMALY":291.7319,"EPHEMERIS_TYPE":0,"NORAD_CAT_ID":63257,"ELEMENT_SET_NO":999,"REV_AT_EPOCH":7246,"BSTAR":0.00021149042,"MEAN_MOTION_DOT":0.00002631,"MEAN_MOTION_DDOT":0},{"OBJECT_NAME":"ICEYE-X46","OBJECT_ID":"2025-052BA","EPOCH":"2026-07-11T15:30:28.302624","CLASSIFICATION_TYPE":"U","MEAN_MOTION":14.95358228,"ECCENTRICITY":0.00016916,"INCLINATION":97.6864,"RA_OF_ASC_NODE":84.0678,"ARG_OF_PERICENTER":85.0528,"MEAN_ANOMALY":275.0886,"EPHEMERIS_TYPE":0,"NORAD_CAT_ID":63258,"ELEMENT_SET_NO":999,"REV_AT_EPOCH":7230,"BSTAR":0.00013948188,"MEAN_MOTION_DOT":0.00001482,"MEAN_MOTION_DDOT":0},{"OBJECT_NAME":"ICEYE-X54","OBJECT_ID":"2025-135AU","EPOCH":"2026-07-11T22:17:44.941632","CLASSIFICATION_TYPE":"U","MEAN_MOTION":14.94720698,"ECCENTRICITY":0.00018249,"INCLINATION":97.7743,"RA_OF_ASC_NODE":307.1151,"ARG_OF_PERICENTER":192.3506,"MEAN_ANOMALY":167.767,"EPHEMERIS_TYPE":0,"NORAD_CAT_ID":64570,"ELEMENT_SET_NO":999,"REV_AT_EPOCH":5759,"BSTAR":0.0001873261,"MEAN_MOTION_DOT":0.00001976,"MEAN_MOTION_DDOT":0},{"OBJECT_NAME":"ICEYE-X52","OBJECT_ID":"2025-135AW","EPOCH":"2026-07-11T22:11:16.456128","CLASSIFICATION_TYPE":"U","MEAN_MOTION":14.93644889,"ECCENTRICITY":0.00009867,"INCLINATION":97.7766,"RA_OF_ASC_NODE":306.9045,"ARG_OF_PERICENTER":200.9078,"MEAN_ANOMALY":159.2102,"EPHEMERIS_TYPE":0,"NORAD_CAT_ID":64572,"ELEMENT_SET_NO":999,"REV_AT_EPOCH":5757,"BSTAR":0.00012399879,"MEAN_MOTION_DOT":0.00001253,"MEAN_MOTION_DDOT":0},{"OBJECT_NAME":"ICEYE-X56","OBJECT_ID":"2025-135AY","EPOCH":"2026-07-11T22:02:52.588608","CLASSIFICATION_TYPE":"U","MEAN_MOTION":14.95749044,"ECCENTRICITY":0.00011329,"INCLINATION":97.7762,"RA_OF_ASC_NODE":307.6868,"ARG_OF_PERICENTER":210.1508,"MEAN_ANOMALY":149.9648,"EPHEMERIS_TYPE":0,"NORAD_CAT_ID":64574,"ELEMENT_SET_NO":999,"REV_AT_EPOCH":5762,"BSTAR":0.00016990922,"MEAN_MOTION_DOT":0.00001835,"MEAN_MOTION_DDOT":0},{"OBJECT_NAME":"ICEYE-X57","OBJECT_ID":"2025-135BC","EPOCH":"2026-07-11T22:25:38.635680","CLASSIFICATION_TYPE":"U","MEAN_MOTION":15.00867651,"ECCENTRICITY":0.00021324,"INCLINATION":97.8012,"RA_OF_ASC_NODE":309.4771,"ARG_OF_PERICENTER":59.6776,"MEAN_ANOMALY":300.4659,"EPHEMERIS_TYPE":0,"NORAD_CAT_ID":64578,"ELEMENT_SET_NO":999,"REV_AT_EPOCH":5773,"BSTAR":0.00022300159,"MEAN_MOTION_DOT":0.00002775,"MEAN_MOTION_DDOT":0},{"OBJECT_NAME":"ICEYE-X55","OBJECT_ID":"2025-135BF","EPOCH":"2026-07-11T22:12:21.644928","CLASSIFICATION_TYPE":"U","MEAN_MOTION":14.95349244,"ECCENTRICITY":0.00018164,"INCLINATION":97.7762,"RA_OF_ASC_NODE":307.521,"ARG_OF_PERICENTER":252.6603,"MEAN_ANOMALY":107.4419,"EPHEMERIS_TYPE":0,"NORAD_CAT_ID":64581,"ELEMENT_SET_NO":999,"REV_AT_EPOCH":5761,"BSTAR":0.00019427986,"MEAN_MOTION_DOT":0.00002085,"MEAN_MOTION_DDOT":0}]}
